STARLINK-2095
1 27679C 21012BM  21325.16322892  .00003214  00000-0  21529-3 0  3250
2 27679  53.0540 277.5064 0001752  71.4868 153.1198 15.06403406    10
